[{"OBJECT_NAME":"ION SCV-016","OBJECT_ID":"2025-009V","EPOCH":"2026-03-09T15:48:19.049184","MEAN_MOTION":14.46743407,"ECCENTRICITY":0.06066159,"INCLINATION":97.4455,"RA_OF_ASC_NODE":117.8911,"ARG_OF_PERICENTER":59.3392,"MEAN_ANOMALY":306.6163,"EPHEMERIS_TYPE":0,"CLASSIFICATION_TYPE":"U","NORAD_CAT_ID":62628,"ELEMENT_SET_NO":999,"REV_AT_EPOCH":6113,"BSTAR":0.0005439681,"MEAN_MOTION_DOT":0.00025234,"MEAN_MOTION_DDOT":0},{"OBJECT_NAME":"CZ-6A R\/B","OBJECT_ID":"2025-287F","EPOCH":"2026-03-09T17:07:40.703520","MEAN_MOTION":13.94932986,"ECCENTRICITY":0.01046431,"INCLINATION":86.5066,"RA_OF_ASC_NODE":313.0622,"ARG_OF_PERICENTER":195.0915,"MEAN_ANOMALY":164.7131,"EPHEMERIS_TYPE":0,"CLASSIFICATION_TYPE":"U","NORAD_CAT_ID":66958,"ELEMENT_SET_NO":999,"REV_AT_EPOCH":1266,"BSTAR":1.9758848e-5,"MEAN_MOTION_DOT":4.6e-7,"MEAN_MOTION_DDOT":0}]
